OBJECT_NAME,OBJECT_ID,EPOCH,MEAN_MOTION,ECCENTRICITY,INCLINATION,RA_OF_ASC_NODE,ARG_OF_PERICENTER,MEAN_ANOMALY,EPHEMERIS_TYPE,CLASSIFICATION_TYPE,NORAD_CAT_ID,ELEMENT_SET_NO,REV_AT_EPOCH,BSTAR,MEAN_MOTION_DOT,MEAN_MOTION_DDOT
STARLINK-37909,2026-135W,2026-07-08T01:45:02.430720,15.81069649,.0000977,97.2852,217.3586,349.3552,10.7695,0,U,69566,999,356,.12313E-2,.245285E-2,0
STARLINK-37934,2026-135X,2026-07-07T10:38:05.764992,15.81011723,.00032614,97.2845,216.6838,125.2579,234.8995,0,U,69567,999,346,.14681327E-2,.293381E-2,0
STARLINK-37938,2026-135Y,2026-07-08T02:00:03.000384,15.71937827,.000156,97.2850,217.3553,60.9199,328.3418,0,U,69568,999,467,-.22249E-1,-.2527537E-1,0
STARLINK-37924,2026-135Z,2026-07-08T03:13:18.715296,15.80876382,.0000684,97.2854,217.4267,54.7029,305.4303,0,U,69569,999,357,.88244E-3,.172751E-2,0
SHIJIAN-31 (SJ-31),2026-136A,2026-07-07T18:48:02.221056,1.92221924,.6940467,63.4846,353.9580,171.8163,212.3323,0,U,69570,999,48,0,.261E-5,0
CZ-3B R/B,2026-136B,2026-07-08T03:20:15.005184,2.34677450,.7282905,63.4369,351.8958,171.4799,216.6680,0,U,69571,999,51,.50089E-3,.337556E-2,-.2885E-6
GUOWANG OBJECT A,2026-137A,2026-07-08T00:04:13.495008,13.89812399,.001257,49.9994,172.5275,294.6347,65.3241,0,U,69572,999,291,-.64693E-5,-.154E-5,0
GUOWANG OBJECT B,2026-137B,2026-07-08T00:00:03.278016,13.89803953,.0011864,50.0021,172.5109,293.4861,66.4790,0,U,69573,999,292,-.65648E-4,-.227E-5,0
GUOWANG OBJECT C,2026-137C,2026-07-07T23:58:29.475264,13.89814795,.0011912,49.9957,172.4915,295.2598,64.7066,0,U,69574,999,292,.48491E-5,-.14E-5,0
GUOWANG OBJECT D,2026-137D,2026-07-07T23:56:52.855008,13.89827677,.0011101,49.9951,172.4841,293.8858,66.0877,0,U,69575,999,292,-.17218E-4,-.167E-5,0
GUOWANG OBJECT E,2026-137E,2026-07-07T11:50:40.223904,13.89825253,.00112312,50.0032,174.5043,295.1696,64.8037,0,U,69576,999,285,-.68481122E-4,-.231E-5,0
GUOWANG OBJECT F,2026-137F,2026-07-07T11:49:26.590368,13.89809671,.00108362,50.0023,174.4976,294.9267,65.0505,0,U,69577,999,285,-.63623987E-4,-.225E-5,0
GUOWANG OBJECT G,2026-137G,2026-07-07T23:52:58.112256,13.89794559,.001083,49.9951,172.4706,296.3977,63.5809,0,U,69578,999,292,-.76864E-4,-.241E-5,0
GUOWANG OBJECT H,2026-137H,2026-06-25T11:38:14.756064,13.92076941,.0010122,49.9967,222.2731,259.8752,100.1006,0,U,69579,999,118,.1427E-3,.37E-6,0
GUOWANG OBJECT J,2026-137J,2026-06-27T06:41:01.268160,13.91997107,.0011832,49.9961,215.0979,257.3150,102.6427,0,U,69580,999,143,.13174E-3,.22E-6,0
CZ-12 R/B,2026-137K,2026-07-07T09:42:26.066304,14.11692816,.00774593,49.9876,171.9644,183.0526,176.9918,0,U,69581,999,286,.8356133E-4,.3E-7,0
CENTISPACE-1 GROUP 05 OBJECT A,2026-138A,2026-07-07T13:12:21.943008,14.15471146,.0010819,55.1386,205.9785,327.0781,32.9519,0,U,69582,999,290,-.60465E-4,-.272E-5,0
CENTISPACE-1 GROUP 05 OBJECT B,2026-138B,2026-07-07T13:08:35.441952,14.15651743,.00097841,55.1382,205.9631,327.3115,32.7252,0,U,69583,999,290,-.96522919E-4,-.344E-5,0
CENTISPACE-1 GROUP 05 OBJECT C,2026-138C,2026-07-08T00:58:32.256768,14.15735583,.0009746,55.1387,204.1397,330.1678,29.8740,0,U,69584,999,297,-.10045E-3,-.352E-5,0
CENTISPACE-1 GROUP 05 OBJECT D,2026-138D,2026-07-08T00:54:51.888384,14.15922031,.0009325,55.1387,204.1177,329.1847,30.8579,0,U,69585,999,297,-.13597E-3,-.423E-5,0
CENTISPACE-1 GROUP 05 OBJECT E,2026-138E,2026-07-07T13:01:52.537152,14.15989162,.00090194,55.1382,205.9456,328.4222,31.6210,0,U,69586,999,290,-.13184806E-3,-.415E-5,0
CENTISPACE-1 GROUP 05 OBJECT F,2026-138F,2026-07-07T13:03:12.866688,14.15912238,.0008907,55.1385,205.9519,332.7839,27.2668,0,U,69587,999,290,-.13099306E-3,-.413E-5,0
CENTISPACE-1 GROUP 05 OBJECT G,2026-138G,2026-07-08T00:51:19.066176,14.16076256,.0008231,55.1384,204.1103,333.5932,26.4622,0,U,69588,999,297,-.15083E-3,-.453E-5,0
SPACEMOBILE-008,2026-139A,2026-07-07T10:09:20.830464,15.12794365,.00046387,52.9937,170.6933,37.6326,322.4989,0,U,69589,999,304,.51460217E-4,.613E-5,0
SPACEMOBILE-009,2026-139B,2026-07-07T08:36:14.501952,15.12687590,.00048916,52.9928,170.9976,32.8078,327.3216,0,U,69590,999,303,.50952734E-4,.601E-5,0
SPACEMOBILE-010,2026-139C,2026-07-07T10:14:37.011264,15.12518827,.00047738,52.9932,170.7141,24.0576,336.0637,0,U,69591,999,305,.50380535E-4,.587E-5,0
KUIPER-00423,2026-140A,2026-07-07T18:39:52.358976,15.38486527,.0013628,51.8813,298.9771,242.3207,117.6398,0,U,69592,999,440,.60324E-3,.23011E-3,0
KUIPER-00428,2026-140B,2026-07-07T17:50:17.856672,15.36828451,.0007897,51.8807,299.4916,5.0917,355.0148,0,U,69593,999,439,.58678E-3,.21138E-3,0
KUIPER-00481,2026-140C,2026-07-07T15:44:38.448384,15.37840552,.0011105,51.8783,299.6565,249.6761,110.3033,0,U,69594,999,438,.33216E-3,.12193E-3,0
KUIPER-00490,2026-140D,2026-07-07T19:05:33.542304,15.37828413,.0006703,51.8774,299.0860,312.1469,47.8947,0,U,69595,999,440,.41711E-3,.15397E-3,0
