STARLINK-37909          
1 69566U 26135W   26189.07294480  .00245285  00000+0  12313-2 0  9996
2 69566  97.2852 217.3586 0000977 349.3552  10.7695 15.81069649  3564
STARLINK-37934          
1 69567U 26135X   26188.44312228  .00293381  00000+0  14681-2 0  9998
2 69567  97.2845 216.6838 0003261 125.2579 234.8995 15.81011723  3469
STARLINK-37938          
1 69568U 26135Y   26189.08336806 -.02527537  00000+0 -22249-1 0  9993
2 69568  97.2850 217.3553 0001560  60.9199 328.3418 15.71937827  4675
STARLINK-37924          
1 69569U 26135Z   26189.13424439  .00172751  00000+0  88244-3 0  9999
2 69569  97.2854 217.4267 0000684  54.7029 305.4303 15.80876382  3577
SHIJIAN-31 (SJ-31)      
1 69570U 26136A   26188.78335904  .00000261  00000+0  00000+0 0  9996
2 69570  63.4846 353.9580 6940467 171.8163 212.3323  1.92221924   486
CZ-3B R/B               
1 69571U 26136B   26189.13906256  .00337556 -28850-6  50089-3 0  9998
2 69571  63.4369 351.8958 7282905 171.4799 216.6680  2.34677450   514
GUOWANG OBJECT A        
1 69572U 26137A   26189.00293397 -.00000154  00000+0 -64693-5 0  9991
2 69572  49.9994 172.5275 0012570 294.6347  65.3241 13.89812399  2910
GUOWANG OBJECT B        
1 69573U 26137B   26189.00003794 -.00000227  00000+0 -65648-4 0  9993
2 69573  50.0021 172.5109 0011864 293.4861  66.4790 13.89803953  2922
GUOWANG OBJECT C        
1 69574U 26137C   26188.99895226 -.00000140  00000+0  48491-5 0  9991
2 69574  49.9957 172.4915 0011912 295.2598  64.7066 13.89814795  2926
GUOWANG OBJECT D        
1 69575U 26137D   26188.99783397 -.00000167  00000+0 -17218-4 0  9999
2 69575  49.9951 172.4841 0011101 293.8858  66.0877 13.89827677  2920
GUOWANG OBJECT E        
1 69576U 26137E   26188.49352111 -.00000231  00000+0 -68481-4 0  9991
2 69576  50.0032 174.5043 0011231 295.1696  64.8037 13.89825253  2854
GUOWANG OBJECT F        
1 69577U 26137F   26188.49266887 -.00000225  00000+0 -63624-4 0  9993
2 69577  50.0023 174.4976 0010836 294.9267  65.0505 13.89809671  2859
GUOWANG OBJECT G        
1 69578U 26137G   26188.99511704 -.00000241  00000+0 -76864-4 0  9998
2 69578  49.9951 172.4706 0010830 296.3977  63.5809 13.89794559  2920
GUOWANG OBJECT H        
1 69579U 26137H   26176.48489301  .00000037  00000+0  14270-3 0  9990
2 69579  49.9967 222.2731 0010122 259.8752 100.1006 13.92076941  1185
GUOWANG OBJECT J        
1 69580U 26137J   26178.27848690  .00000022  00000+0  13174-3 0  9997
2 69580  49.9961 215.0979 0011832 257.3150 102.6427 13.91997107  1436
CZ-12 R/B               
1 69581U 26137K   26188.40446836  .00000003  00000+0  83561-4 0  9997
2 69581  49.9876 171.9644 0077459 183.0526 176.9918 14.11692816  2869
CENTISPACE-1 GROUP 05 O*
1 69582U 26138A   26188.55025397 -.00000272  00000+0 -60465-4 0  9998
2 69582  55.1386 205.9785 0010819 327.0781  32.9519 14.15471146  2907
CENTISPACE-1 GROUP 05 O*
1 69583U 26138B   26188.54763243 -.00000344  00000+0 -96523-4 0  9991
2 69583  55.1382 205.9631 0009784 327.3115  32.7252 14.15651743  2902
CENTISPACE-1 GROUP 05 O*
1 69584U 26138C   26189.04065112 -.00000352  00000+0 -10045-3 0  9991
2 69584  55.1387 204.1397 0009746 330.1678  29.8740 14.15735583  2973
CENTISPACE-1 GROUP 05 O*
1 69585U 26138D   26189.03810056 -.00000423  00000+0 -13597-3 0  9990
2 69585  55.1387 204.1177 0009325 329.1847  30.8579 14.15922031  2977
CENTISPACE-1 GROUP 05 O*
1 69586U 26138E   26188.54296918 -.00000415  00000+0 -13185-3 0  9995
2 69586  55.1382 205.9456 0009019 328.4222  31.6210 14.15989162  2903
CENTISPACE-1 GROUP 05 O*
1 69587U 26138F   26188.54389892 -.00000413  00000+0 -13099-3 0  9992
2 69587  55.1385 205.9519 0008907 332.7839  27.2668 14.15912238  2902
CENTISPACE-1 GROUP 05 O*
1 69588U 26138G   26189.03563734 -.00000453  00000+0 -15083-3 0  9996
2 69588  55.1384 204.1103 0008231 333.5932  26.4622 14.16076256  2975
SPACEMOBILE-008         
1 69589U 26139A   26188.42315776  .00000613  00000+0  51460-4 0  9997
2 69589  52.9937 170.6933 0004638  37.6326 322.4989 15.12794365  3048
SPACEMOBILE-009         
1 69590U 26139B   26188.35850118  .00000601  00000+0  50953-4 0  9998
2 69590  52.9928 170.9976 0004891  32.8078 327.3216 15.12687590  3039
SPACEMOBILE-010         
1 69591U 26139C   26188.42681726  .00000587  00000+0  50381-4 0  9992
2 69591  52.9932 170.7141 0004773  24.0576 336.0637 15.12518827  3054
KUIPER-00423            
1 69592U 26140A   26188.77768934  .00023011  00000+0  60324-3 0  9994
2 69592  51.8813 298.9771 0013628 242.3207 117.6398 15.38486527  4404
KUIPER-00428            
1 69593U 26140B   26188.74326223  .00021138  00000+0  58678-3 0  9990
2 69593  51.8807 299.4916 0007897   5.0917 355.0148 15.36828451  4391
KUIPER-00481            
1 69594U 26140C   26188.65600056  .00012193  00000+0  33216-3 0  9992
2 69594  51.8783 299.6565 0011105 249.6761 110.3033 15.37840552  4388
KUIPER-00490            
1 69595U 26140D   26188.79552711  .00015397  00000+0  41711-3 0  9990
2 69595  51.8774 299.0860 0006703 312.1469  47.8947 15.37828413  4403
